QIANFAN-81              
1 63167U 25046J   25342.26742169  .00000194  00000+0  28203-3 0  9994
2 63167  88.9758 320.3349 0016021 128.5272 231.7318 13.51000837 46880
QIANFAN-82              
1 63168U 25046K   25342.22731919  .00000164  00000+0  23507-3 0  9991
2 63168  88.9758 320.3830 0013964 135.0748 225.1535 13.50974300 46860
QIANFAN-83              
1 63169U 25046L   25342.21740363  .00000199  00000+0  24259-3 0  9997
2 63169  88.9759 320.1692 0015622 122.4039 237.8633 13.61972739 46980
QIANFAN-84              
1 63170U 25046M   25342.25515945  .00000096  00000+0  12988-3 0  9991
2 63170  88.9758 320.5129 0017003 132.9089 227.3492 13.50985625 46798
QIANFAN-85              
1 63171U 25046N   25342.25188412  .00000172  00000+0  24785-3 0  9990
2 63171  88.9758 320.3848 0014345 134.0682 226.1653 13.50974815 46866
QIANFAN-86              
1 63172U 25046P   25342.26021163  .00000174  00000+0  25020-3 0  9996
2 63172  88.9760 320.2460 0012132 136.8684 223.3420 13.50974699 46943
QIANFAN-87              
1 63173U 25046Q   25342.30559958  .00000153  00000+0  21835-3 0  9997
2 63173  88.9756 320.3532 0012900 132.8524 227.3713 13.50972877 46880
QIANFAN-88              
1 63174U 25046R   25342.24788442  .00000163  00000+0  23412-3 0  9997
2 63174  88.9759 320.3136 0013093 140.5421 219.6686 13.50979227 46902
